start=new Date('2023-02-10T00:00:00.000Z').valueOf();
sats=[{"EPOCH":"2023-02-09T21:21:16.436448","ARG_OF_PERICENTER":"79.1503","EPHEMERIS_TYPE":"0","NORAD_CAT_ID":"53007","REV_AT_EPOCH":"3319","MEAN_ANOMALY":"280.9690","ELEMENT_SET_NO":"999","RCS_SIZE":"LARGE","BSTAR":"0.00009377700000","MEAN_MOTION_DOT":"0.00001204","TLE_LINE2":"2 53007  53.2159  99.0611 0001786  79.1503 280.9690 15.08834730 33194","TIME_SYSTEM":"UTC","SEMIMAJOR_AXIS":"6917.896","COUNTRY_CODE":"US","FILE":"3783241","MEAN_ELEMENT_THEORY":"SGP4","CENTER_NAME":"EARTH","PERIAPSIS":"538.526","MEAN_MOTION_DDOT":"0.0000000000000","REF_FRAME":"TEME","OBJECT_ID":"2022-076X","DECAY_DATE":null,"MEAN_MOTION":"15.08834730","TLE_LINE1":"1 53007U 22076X   23040.88977357  .00001204  00000-0  93777-4 0  9999","APOAPSIS":"540.997","ECCENTRICITY":"0.00017860","RA_OF_ASC_NODE":"99.0611","LAUNCH_DATE":"2022-07-07","OBJECT_TYPE":"PAYLOAD","GP_ID":"224960402","CLASSIFICATION_TYPE":"U","OBJECT_NAME":"STARLINK-4215","SITE":"AFETR","PERIOD":"95.438","INCLINATION":"53.2159"},{"EPOCH":"2023-02-09T21:27:56.302560","ARG_OF_PERICENTER":"117.1152","MEAN_ANOMALY":"242.9980","REV_AT_EPOCH":"3319","NORAD_CAT_ID":"53008","EPHEMERIS_TYPE":"0","RCS_SIZE":"LARGE","ELEMENT_SET_NO":"999","BSTAR":"-0.00006077100000","TIME_SYSTEM":"UTC","TLE_LINE2":"2 53008  53.2194  99.0319 0001378 117.1152 242.9980 15.08844074 33191","MEAN_MOTION_DOT":"-0.00001255","FILE":"3783241","MEAN_ELEMENT_THEORY":"SGP4","COUNTRY_CODE":"US","SEMIMAJOR_AXIS":"6917.868","PERIAPSIS":"538.780","CENTER_NAME":"EARTH","OBJECT_ID":"2022-076Y","REF_FRAME":"TEME","MEAN_MOTION_DDOT":"0.0000000000000","MEAN_MOTION":"15.08844074","DECAY_DATE":null,"APOAPSIS":"540.686","TLE_LINE1":"1 53008U 22076Y   23040.89440165 -.00001255  00000-0 -60771-4 0  9999","ECCENTRICITY":"0.00013780","RA_OF_ASC_NODE":"99.0319","LAUNCH_DATE":"2022-07-07","GP_ID":"224958661","OBJECT_TYPE":"PAYLOAD","INCLINATION":"53.2194","PERIOD":"95.437","SITE":"AFETR","CLASSIFICATION_TYPE":"U","OBJECT_NAME":"STARLINK-4275"},{"EPOCH":"2023-02-09T09:53:41.744544","ARG_OF_PERICENTER":"77.5245","REV_AT_EPOCH":"3325","NORAD_CAT_ID":"53009","EPHEMERIS_TYPE":"0","MEAN_ANOMALY":"282.5912","RCS_SIZE":"LARGE","ELEMENT_SET_NO":"999","BSTAR":"0.00000436060000","TIME_SYSTEM":"UTC","TLE_LINE2":"2 53009  53.2180  91.2012 0001478  77.5245 282.5912 15.08840952 33257","MEAN_MOTION_DOT":"-0.00000219","COUNTRY_CODE":"US","SEMIMAJOR_AXIS":"6917.877","MEAN_ELEMENT_THEORY":"SGP4","FILE":"3782313","PERIAPSIS":"538.720","CENTER_NAME":"EARTH","OBJECT_ID":"2022-076Z","REF_FRAME":"TEME","MEAN_MOTION_DDOT":"0.0000000000000","MEAN_MOTION":"15.08840952","DECAY_DATE":null,"APOAPSIS":"540.765","TLE_LINE1":"1 53009U 22076Z   23040.41228871 -.00000219  00000-0  43606-5 0  9993","RA_OF_ASC_NODE":"91.2012","ECCENTRICITY":"0.00014780","LAUNCH_DATE":"2022-07-07","GP_ID":"224911707","OBJECT_TYPE":"PAYLOAD","CLASSIFICATION_TYPE":"U","OBJECT_NAME":"STARLINK-4277","INCLINATION":"53.2180","PERIOD":"95.437","SITE":"AFETR"},{"LAUNCH_DATE":"2022-07-07","ECCENTRICITY":"0.00018140","RA_OF_ASC_NODE":"99.0371","TLE_LINE1":"1 53010U 22076AA  23040.89345088  .00001554  00000-0  11576-3 0  9998","APOAPSIS":"541.038","DECAY_DATE":null,"MEAN_MOTION":"15.08827507","CLASSIFICATION_TYPE":"U","OBJECT_NAME":"STARLINK-4263","SITE":"AFETR","INCLINATION":"53.2175","PERIOD":"95.438","OBJECT_TYPE":"PAYLOAD","GP_ID":"224960155","RCS_SIZE":"LARGE","BSTAR":"0.00011576000000","ELEMENT_SET_NO":"999","NORAD_CAT_ID":"53010","EPHEMERIS_TYPE":"0","REV_AT_EPOCH":"3319","MEAN_ANOMALY":"275.6489","ARG_OF_PERICENTER":"84.4710","EPOCH":"2023-02-09T21:26:34.156032","REF_FRAME":"TEME","MEAN_MOTION_DDOT":"0.0000000000000","OBJECT_ID":"2022-076AA","CENTER_NAME":"EARTH","PERIAPSIS":"538.529","SEMIMAJOR_AXIS":"6917.919","COUNTRY_CODE":"US","FILE":"3783241","MEAN_ELEMENT_THEORY":"SGP4","MEAN_MOTION_DOT":"0.00001554","TLE_LINE2":"2 53010  53.2175  99.0371 0001814  84.4710 275.6489 15.08827507 33191","TIME_SYSTEM":"UTC"},{"OBJECT_TYPE":"PAYLOAD","GP_ID":"224959904","SITE":"AFETR","PERIOD":"95.437","INCLINATION":"53.2166","CLASSIFICATION_TYPE":"U","OBJECT_NAME":"STARLINK-4265","TLE_LINE1":"1 53011U 22076AB  23040.54108387  .00000402  00000-0  43329-4 0  9993","APOAPSIS":"540.678","DECAY_DATE":null,"MEAN_MOTION":"15.08848202","LAUNCH_DATE":"2022-07-07","RA_OF_ASC_NODE":"90.6306","ECCENTRICITY":"0.00013840","MEAN_ELEMENT_THEORY":"SGP4","FILE":"3783241","SEMIMAJOR_AXIS":"6917.855","COUNTRY_CODE":"US","MEAN_MOTION_DOT":"0.00000402","TLE_LINE2":"2 53011  53.2166  90.6306 0001384  98.6112 261.5037 15.08848202 33279","TIME_SYSTEM":"UTC","REF_FRAME":"TEME","MEAN_MOTION_DDOT":"0.0000000000000","OBJECT_ID":"2022-076AB","CENTER_NAME":"EARTH","PERIAPSIS":"538.763","ARG_OF_PERICENTER":"98.6112","EPOCH":"2023-02-09T12:59:09.646368","RCS_SIZE":"LARGE","BSTAR":"0.00004332900000","ELEMENT_SET_NO":"999","MEAN_ANOMALY":"261.5037","NORAD_CAT_ID":"53011","EPHEMERIS_TYPE":"0","REV_AT_EPOCH":"3327"},{"GP_ID":"224959161","OBJECT_TYPE":"PAYLOAD","INCLINATION":"53.2136","PERIOD":"95.438","SITE":"AFETR","CLASSIFICATION_TYPE":"U","OBJECT_NAME":"STARLINK-4271","MEAN_MOTION":"15.08840378","DECAY_DATE":null,"APOAPSIS":"540.667","TLE_LINE1":"1 53012U 22076AC  23040.88609115  .00003386  00000-0  23073-3 0  9993","ECCENTRICITY":"0.00013340","RA_OF_ASC_NODE":"99.0801","LAUNCH_DATE":"2022-07-07","TIME_SYSTEM":"UTC","TLE_LINE2":"2 53012  53.2136  99.0801 0001334  62.0911 298.0216 15.08840378 33198","MEAN_MOTION_DOT":"0.00003386","MEAN_ELEMENT_THEORY":"SGP4","FILE":"3783241","COUNTRY_CODE":"US","SEMIMAJOR_AXIS":"6917.879","PERIAPSIS":"538.821","CENTER_NAME":"EARTH","OBJECT_ID":"2022-076AC","MEAN_MOTION_DDOT":"0.0000000000000","REF_FRAME":"TEME","EPOCH":"2023-02-09T21:15:58.275360","ARG_OF_PERICENTER":"62.0911","MEAN_ANOMALY":"298.0216","REV_AT_EPOCH":"3319","EPHEMERIS_TYPE":"0","NORAD_CAT_ID":"53012","RCS_SIZE":"LARGE","BSTAR":"0.00023073000000","ELEMENT_SET_NO":"999"},{"CENTER_NAME":"EARTH","PERIAPSIS":"538.336","MEAN_MOTION_DDOT":"0.0000000000000","REF_FRAME":"TEME","OBJECT_ID":"2022-076AD","MEAN_MOTION_DOT":"0.00029276","TLE_LINE2":"2 53013  53.2135  89.1785 0002003  70.0031 290.1177 15.08847780 33323","TIME_SYSTEM":"UTC","FILE":"3783241","MEAN_ELEMENT_THEORY":"SGP4","SEMIMAJOR_AXIS":"6917.857","COUNTRY_CODE":"US","MEAN_ANOMALY":"290.1177","NORAD_CAT_ID":"53013","EPHEMERIS_TYPE":"0","REV_AT_EPOCH":"3332","BSTAR":"0.00184950000000","RCS_SIZE":"LARGE","ELEMENT_SET_NO":"999","EPOCH":"2023-02-09T20:45:30.539520","ARG_OF_PERICENTER":"70.0031","SITE":"AFETR","INCLINATION":"53.2135","PERIOD":"95.437","CLASSIFICATION_TYPE":"U","OBJECT_NAME":"STARLINK-4177","OBJECT_TYPE":"PAYLOAD","GP_ID":"224959411","ECCENTRICITY":"0.00020030","RA_OF_ASC_NODE":"89.1785","LAUNCH_DATE":"2022-07-07","DECAY_DATE":null,"MEAN_MOTION":"15.08847780","TLE_LINE1":"1 53013U 22076AD  23040.86493680  .00029276  00000-0  18495-2 0  9997","APOAPSIS":"541.107"},{"SITE":"AFETR","INCLINATION":"53.2184","PERIOD":"95.437","CLASSIFICATION_TYPE":"U","OBJECT_NAME":"STARLINK-4183","OBJECT_TYPE":"PAYLOAD","GP_ID":"224931574","RA_OF_ASC_NODE":"91.1773","ECCENTRICITY":"0.00013970","LAUNCH_DATE":"2022-07-07","DECAY_DATE":null,"MEAN_MOTION":"15.08848949","TLE_LINE1":"1 53014U 22076AE  23040.41596202 -.00001180  00000-0 -56027-4 0  9994","APOAPSIS":"540.684","CENTER_NAME":"EARTH","PERIAPSIS":"538.752","MEAN_MOTION_DDOT":"0.0000000000000","REF_FRAME":"TEME","OBJECT_ID":"2022-076AE","MEAN_MOTION_DOT":"-0.00001180","TIME_SYSTEM":"UTC","TLE_LINE2":"2 53014  53.2184  91.1773 0001397 104.2369 255.8779 15.08848949 33725","MEAN_ELEMENT_THEORY":"SGP4","FILE":"3783003","SEMIMAJOR_AXIS":"6917.853","COUNTRY_CODE":"US","MEAN_ANOMALY":"255.8779","NORAD_CAT_ID":"53014","EPHEMERIS_TYPE":"0","REV_AT_EPOCH":"3372","RCS_SIZE":"LARGE","ELEMENT_SET_NO":"999","BSTAR":"-0.00005602700000","EPOCH":"2023-02-09T09:58:59.118528","ARG_OF_PERICENTER":"104.2369"},{"ARG_OF_PERICENTER":"69.7491","EPOCH":"2023-02-09T20:34:53.889888","BSTAR":"0.00064380000000","RCS_SIZE":"LARGE","ELEMENT_SET_NO":"999","MEAN_ANOMALY":"290.3650","REV_AT_EPOCH":"3379","NORAD_CAT_ID":"53015","EPHEMERIS_TYPE":"0","FILE":"3783003","MEAN_ELEMENT_THEORY":"SGP4","COUNTRY_CODE":"US","SEMIMAJOR_AXIS":"6917.916","TLE_LINE2":"2 53015  53.2139  89.2110 0001379  69.7491 290.3650 15.08828345 33797","TIME_SYSTEM":"UTC","MEAN_MOTION_DOT":"0.00009970","OBJECT_ID":"2022-076AF","MEAN_MOTION_DDOT":"0.0000000000000","REF_FRAME":"TEME","PERIAPSIS":"538.827","CENTER_NAME":"EARTH","APOAPSIS":"540.735","TLE_LINE1":"1 53015U 22076AF  23040.85756817  .00009970  00000-0  64380-3 0  9996","MEAN_MOTION":"15.08828345","DECAY_DATE":null,"LAUNCH_DATE":"2022-07-07","ECCENTRICITY":"0.00013790","RA_OF_ASC_NODE":"89.2110","GP_ID":"224931572","OBJECT_TYPE":"PAYLOAD","INCLINATION":"53.2139","PERIOD":"95.438","SITE":"AFETR","OBJECT_NAME":"STARLINK-4262","CLASSIFICATION_TYPE":"U"},{"TIME_SYSTEM":"UTC","TLE_LINE2":"2 53016  53.2142  89.1506 0001068  88.4525 271.6589 15.08842189 33325","MEAN_MOTION_DOT":"-0.00001809","COUNTRY_CODE":"US","SEMIMAJOR_AXIS":"6917.874","FILE":"3783241","MEAN_ELEMENT_THEORY":"SGP4","PERIAPSIS":"539.000","CENTER_NAME":"EARTH","OBJECT_ID":"2022-076AG","REF_FRAME":"TEME","MEAN_MOTION_DDOT":"0.0000000000000","EPOCH":"2023-02-09T20:50:47.697504","ARG_OF_PERICENTER":"88.4525","REV_AT_EPOCH":"3332","EPHEMERIS_TYPE":"0","NORAD_CAT_ID":"53016","MEAN_ANOMALY":"271.6589","RCS_SIZE":"LARGE","BSTAR":"-0.00009560200000","ELEMENT_SET_NO":"999","GP_ID":"224958662","OBJECT_TYPE":"PAYLOAD","CLASSIFICATION_TYPE":"U","OBJECT_NAME":"STARLINK-4283","PERIOD":"95.437","INCLINATION":"53.2142","SITE":"AFETR","MEAN_MOTION":"15.08842189","DECAY_DATE":null,"APOAPSIS":"540.478","TLE_LINE1":"1 53016U 22076AG  23040.86860761 -.00001809  00000-0 -95602-4 0  9999","RA_OF_ASC_NODE":"89.1506","ECCENTRICITY":"0.00010680","LAUNCH_DATE":"2022-07-07"}];
